{
  "type": "FeatureCollection",
  "features": [
    {
      "type": "Feature",
      "properties": {
        "norad_id": 34571,
        "name": "COSMOS 2251 DEB",
        "group": "cosmos-2251-debris",
        "lat": -3.8147923365827934,
        "lon": 170.3983172956411,
        "alt_km": 773.0174585233572,
        "timestamp": "2025-12-18T13:51:50.080629+00:00",
        "meta_object_name": "COSMOS 2251 DEB",
        "meta_object_id": "1993-036VH",
        "meta_epoch": "2025-12-17T22:58:06.047616",
        "meta_mean_motion": 14.48891959,
        "meta_eccentricity": 0.00655106,
        "meta_inclination": 74.0374,
        "meta_ra_of_asc_node": 172.6548,
        "meta_arg_of_pericenter": 206.4369,
        "meta_mean_anomaly": 153.3444,
        "meta_ephemeris_type": 0,
        "meta_classification_type": "U",
        "meta_norad_cat_id": 34571,
        "meta_element_set_no": 999,
        "meta_rev_at_epoch": 87369,
        "meta_bstar": 0.0018022922,
        "meta_mean_motion_dot": 6.986e-05,
        "meta_mean_motion_ddot": 0,
        "tle_line1": "1 34571U 93036VH  25351.95701444  .00006986  00000+0  18023-2 0  9995",
        "tle_line2": "2 34571  74.0374 172.6548 0065510 206.4369 153.3444 14.48891959873692"
      },
      "geometry": {
        "type": "Point",
        "coordinates": [
          170.3983172956411,
          -3.8147923365827934
        ]
      }
    },
    {
      "type": "Feature",
      "properties": {
        "norad_id": 34572,
        "name": "COSMOS 2251 DEB",
        "group": "cosmos-2251-debris",
        "lat": -60.25084762802246,
        "lon": -45.363447104528014,
        "alt_km": 714.7150548228174,
        "timestamp": "2025-12-18T13:51:50.080643+00:00",
        "meta_object_name": "COSMOS 2251 DEB",
        "meta_object_id": "1993-036VJ",
        "meta_epoch": "2025-12-17T08:51:26.669952",
        "meta_mean_motion": 14.50108121,
        "meta_eccentricity": 0.00622699,
        "meta_inclination": 74.0105,
        "meta_ra_of_asc_node": 106.7968,
        "meta_arg_of_pericenter": 179.7942,
        "meta_mean_anomaly": 237.2131,
        "meta_ephemeris_type": 0,
        "meta_classification_type": "U",
        "meta_norad_cat_id": 34572,
        "meta_element_set_no": 999,
        "meta_rev_at_epoch": 87445,
        "meta_bstar": 0.0020762256,
        "meta_mean_motion_dot": 8.243e-05,
        "meta_mean_motion_ddot": 0,
        "tle_line1": "1 34572U 93036VJ  25351.36905868  .00008243  00000+0  20762-2 0  9998",
        "tle_line2": "2 34572  74.0105 106.7968 0062269 179.7942 237.2131 14.50108121874451"
      },
      "geometry": {
        "type": "Point",
        "coordinates": [
          -45.363447104528014,
          -60.25084762802246
        ]
      }
    },
    {
      "type": "Feature",
      "properties": {
        "norad_id": 34574,
        "name": "COSMOS 2251 DEB",
        "group": "cosmos-2251-debris",
        "lat": -22.393322897358154,
        "lon": -141.4160825677149,
        "alt_km": 705.6727337856782,
        "timestamp": "2025-12-18T13:51:50.080654+00:00",
        "meta_object_name": "COSMOS 2251 DEB",
        "meta_object_id": "1993-036VL",
        "meta_epoch": "2025-12-18T01:37:01.479936",
        "meta_mean_motion": 14.70661403,
        "meta_eccentricity": 0.00670238,
        "meta_inclination": 74.0692,
        "meta_ra_of_asc_node": 32.8132,
        "meta_arg_of_pericenter": 52.1029,
        "meta_mean_anomaly": 330.2457,
        "meta_ephemeris_type": 0,
        "meta_classification_type": "U",
        "meta_norad_cat_id": 34574,
        "meta_element_set_no": 999,
        "meta_rev_at_epoch": 88857,
        "meta_bstar": 0.00067445984,
        "meta_mean_motion_dot": 4.221e-05,
        "meta_mean_motion_ddot": 0,
        "tle_line1": "1 34574U 93036VL  25352.06737824  .00004221  00000+0  67446-3 0  9996",
        "tle_line2": "2 34574  74.0692  32.8132 0067023  52.1029 330.2457 14.70661403888571"
      },
      "geometry": {
        "type": "Point",
        "coordinates": [
          -141.4160825677149,
          -22.393322897358154
        ]
      }
    },
    {
      "type": "Feature",
      "properties": {
        "norad_id": 34576,
        "name": "COSMOS 2251 DEB",
        "group": "cosmos-2251-debris",
        "lat": -32.09185766017977,
        "lon": -42.5199713896564,
        "alt_km": 709.8619450693386,
        "timestamp": "2025-12-18T13:51:50.080665+00:00",
        "meta_object_name": "COSMOS 2251 DEB",
        "meta_object_id": "1993-036VN",
        "meta_epoch": "2025-12-17T10:45:00.046944",
        "meta_mean_motion": 14.55458342,
        "meta_eccentricity": 0.00082152,
        "meta_inclination": 74.0336,
        "meta_ra_of_asc_node": 129.2767,
        "meta_arg_of_pericenter": 266.0884,
        "meta_mean_anomaly": 150.3663,
        "meta_ephemeris_type": 0,
        "meta_classification_type": "U",
        "meta_norad_cat_id": 34576,
        "meta_element_set_no": 999,
        "meta_rev_at_epoch": 88535,
        "meta_bstar": 0.00066309428,
        "meta_mean_motion_dot": 2.858e-05,
        "meta_mean_motion_ddot": 0,
        "tle_line1": "1 34576U 93036VN  25351.44791721  .00002858  00000+0  66309-3 0  9996",
        "tle_line2": "2 34576  74.0336 129.2767 0008215 266.0884 150.3663 14.55458342885358"
      },
      "geometry": {
        "type": "Point",
        "coordinates": [
          -42.5199713896564,
          -32.09185766017977
        ]
      }
    },
    {
      "type": "Feature",
      "properties": {
        "norad_id": 34579,
        "name": "COSMOS 2251 DEB",
        "group": "cosmos-2251-debris",
        "lat": -36.995195056214705,
        "lon": 45.46616235230661,
        "alt_km": 737.7498823545438,
        "timestamp": "2025-12-18T13:51:50.080676+00:00",
        "meta_object_name": "COSMOS 2251 DEB",
        "meta_object_id": "1993-036VR",
        "meta_epoch": "2025-12-18T01:55:45.829920",
        "meta_mean_motion": 14.45323007,
        "meta_eccentricity": 0.00275358,
        "meta_inclination": 74.0518,
        "meta_ra_of_asc_node": 213.9501,
        "meta_arg_of_pericenter": 281.7877,
        "meta_mean_anomaly": 230.8063,
        "meta_ephemeris_type": 0,
        "meta_classification_type": "U",
        "meta_norad_cat_id": 34579,
        "meta_element_set_no": 999,
        "meta_rev_at_epoch": 88251,
        "meta_bstar": 0.00031272999,
        "meta_mean_motion_dot": 1.077e-05,
        "meta_mean_motion_ddot": 0,
        "tle_line1": "1 34579U 93036VR  25352.08039155  .00001077  00000+0  31273-3 0  9990",
        "tle_line2": "2 34579  74.0518 213.9501 0027535 281.7877 230.8063 14.45323007882513"
      },
      "geometry": {
        "type": "Point",
        "coordinates": [
          45.46616235230661,
          -36.995195056214705
        ]
      }
    },
    {
      "type": "Feature",
      "properties": {
        "norad_id": 34582,
        "name": "COSMOS 2251 DEB",
        "group": "cosmos-2251-debris",
        "lat": 59.58323597195454,
        "lon": 52.30500850837766,
        "alt_km": 750.5102331855987,
        "timestamp": "2025-12-18T13:51:50.080687+00:00",
        "meta_object_name": "COSMOS 2251 DEB",
        "meta_object_id": "1993-036VU",
        "meta_epoch": "2025-12-18T05:00:47.638080",
        "meta_mean_motion": 14.43353763,
        "meta_eccentricity": 0.00481582,
        "meta_inclination": 74.0201,
        "meta_ra_of_asc_node": 262.2056,
        "meta_arg_of_pericenter": 11.1326,
        "meta_mean_anomaly": 349.0884,
        "meta_ephemeris_type": 0,
        "meta_classification_type": "U",
        "meta_norad_cat_id": 34582,
        "meta_element_set_no": 999,
        "meta_rev_at_epoch": 88026,
        "meta_bstar": 0.00064504584,
        "meta_mean_motion_dot": 2.18e-05,
        "meta_mean_motion_ddot": 0,
        "tle_line1": "1 34582U 93036VU  25352.20888470  .00002180  00000+0  64505-3 0  9990",
        "tle_line2": "2 34582  74.0201 262.2056 0048158  11.1326 349.0884 14.43353763880260"
      },
      "geometry": {
        "type": "Point",
        "coordinates": [
          52.30500850837766,
          59.58323597195454
        ]
      }
    },
    {
      "type": "Feature",
      "properties": {
        "norad_id": 34588,
        "name": "COSMOS 2251 DEB",
        "group": "cosmos-2251-debris",
        "lat": 35.32818802657397,
        "lon": 65.7376569885596,
        "alt_km": 762.3847466028546,
        "timestamp": "2025-12-18T13:51:50.080698+00:00",
        "meta_object_name": "COSMOS 2251 DEB",
        "meta_object_id": "1993-036WA",
        "meta_epoch": "2025-12-18T05:38:16.115136",
        "meta_mean_motion": 14.42038112,
        "meta_eccentricity": 0.00192594,
        "meta_inclination": 74.043,
        "meta_ra_of_asc_node": 258.073,
        "meta_arg_of_pericenter": 310.1586,
        "meta_mean_anomaly": 214.1982,
        "meta_ephemeris_type": 0,
        "meta_classification_type": "U",
        "meta_norad_cat_id": 34588,
        "meta_element_set_no": 999,
        "meta_rev_at_epoch": 88029,
        "meta_bstar": 0.0003555332,
        "meta_mean_motion_dot": 1.143e-05,
        "meta_mean_motion_ddot": 0,
        "tle_line1": "1 34588U 93036WA  25352.23490874  .00001143  00000+0  35553-3 0  9995",
        "tle_line2": "2 34588  74.0430 258.0730 0019259 310.1586 214.1982 14.42038112880293"
      },
      "geometry": {
        "type": "Point",
        "coordinates": [
          65.7376569885596,
          35.32818802657397
        ]
      }
    }
  ]
}